ONEWEB-0033             
1 45142U 20008M   25145.61488307 -.00000195  00000+0 -59365-3 0  9997
2 45142  87.8800 113.5701 0002095  90.2968 269.8399 13.10369668257459
ONEWEB-0035             
1 45143U 20008N   25145.34017300 -.00000013  00000+0 -72231-4 0  9996
2 45143  87.8814 113.6241 0002082  87.6750 272.4616 13.10376174257148
ONEWEB-0036             
1 45144U 20008P   25145.40655944 -.00000519  00000+0 -15222-2 0  9992
2 45144  87.8808 113.5540 0002114  79.0077 281.1289 13.10375282257586
ONEWEB-0038             
1 45145U 20008Q   25145.41662276 -.00010277  00000+0 -29247-1 0  9993
2 45145  87.8828  98.3434 0000576  44.9669 315.1505 13.10990699259507
ONEWEB-0039             
1 45146U 20008R   25145.38913417 -.00000409  00000+0 -12066-2 0  9994
2 45146  87.8803 113.5800 0001656  69.4365 290.6940 13.10371619257371
ONEWEB-0040             
1 45147U 20008S   25145.61157083 -.00000047  00000+0 -17132-3 0  9998
2 45147  87.8810 113.5595 0001981  83.4352 276.7001 13.10369825257104
ONEWEB-0043             
1 45149U 20008U   25145.61322898 -.00000116  00000+0 -36839-3 0  9990
2 45149  87.8803 113.5474 0001997  71.4028 288.7316 13.10370170257420
ONEWEB-0044             
1 45150U 20008V   25145.41238577 -.00000233  00000+0 -70494-3 0  9995
2 45150  87.8810 113.5791 0001992  75.5845 284.5503 13.10378396257698
